satname,norad_id,inclination_deg,eccentricity,mean_motion_rev_per_day,perigee_km,apogee_km,l1,l2
STARLINK-1008,44714,53.1563,0.0003202,15.34458322,460.3395188812601,464.72028196429073,1 44714U 19074B   26100.53199775  .00043836  00000+0  12984-2 0  9995,2 44714  53.1563  30.3158 0003202 138.5773 221.5473 15.34458322353750
STARLINK-1012,44718,53.1601,0.0003483,15.33696715,462.41095717743156,467.1777431559567,1 44718U 19074F   26100.52890331  .00046009  00000+0  13950-2 0  9993,2 44718  53.1601  30.5778 0003483 133.9028 226.2263 15.33696715353747
STARLINK-1017,44723,53.0523,0.0003459,15.27263929,481.6220778402494,486.3693012348713,1 44723U 19074L   26100.51252270  .00039136  00000+0  14508-2 0  9995,2 44723  53.0523  24.3071 0003459 137.0188 223.1081 15.27263929353820
STARLINK-1019,44724,53.0374,0.0003722,15.93538428,289.90724532076365,294.8727856310834,1 44724U 19074M   26100.58335647  .00283654  41975-4  77849-3 0  9998,2 44724  53.0374 335.0581 0003722 247.3787 310.8298 15.93538428  5916
STARLINK-1020,44725,53.1616,0.0002923,15.32818447,465.40703755933555,469.408943160699,1 44725U 19074N   26100.26321775  .00061127  00000+0  18978-2 0  9996,2 44725  53.1616  57.0007 0002923 128.6807 231.4456 15.32818447353338
STARLINK-1036,44741,53.0413,0.0005468,15.63050986,375.15519856093033,382.54463945555744,1 44741U 19074AE  26100.53307248  .00102083  00000+0  10934-2 0  9994,2 44741  53.0413  33.6120 0005468  93.5966 266.5673 15.63050986353698
STARLINK-1039,44744,53.0636,0.0001377,15.24652123,490.8842455936783,492.77623457159734,1 44744U 19074AH  26100.17836092  .00049388  00000+0  19743-2 0  9996,2 44744  53.0636  70.0687 0001377  47.9053 312.2061 15.24652123353155
STARLINK-1042,44747,53.0439,7.56e-05,15.51655169,411.37977602381034,412.40642857527746,1 44747U 19074AL  26100.55633480  .00032759  00000+0  54724-3 0  9990,2 44747  53.0439 301.6987 0000756 211.0853 149.0111 15.51655169355019
STARLINK-1043,44748,53.0519,0.000268,15.55885412,397.7636384228326,401.3964947705281,1 44748U 19074AM  26100.22039956  .00032901  00000+0  47149-3 0  9995,2 44748  53.0519  42.1206 0002680 118.4002 241.7279 15.55885412353556
STARLINK-1046,44751,53.0512,0.0001396,15.47760915,422.32825391776805,424.22720891078006,1 44751U 19074AQ  26100.17026833  .00078084  00000+0  14755-2 0  9991,2 44751  53.0512  60.8472 0001396 323.2160  36.8751 15.47760915353288
STARLINK-1047,44752,53.0717,0.000216,15.3341714,464.1478146693935,467.1043203145491,1 44752U 19074AR  26100.44272044  .00010069  00000+0  31837-3 0  9999,2 44752  53.0717 357.5861 0002160   4.8692 355.2329 15.33417140354213
STARLINK-1048,44753,53.0499,0.0003274,15.59350958,387.31861336395104,391.75008456325213,1 44753U 19074AS  26100.17965336  .00109956  00000+0  13567-2 0  9996,2 44753  53.0499  16.2888 0003274 138.1179 222.0084 15.59350958353902
STARLINK-1063,44768,53.1574,0.0003617,15.33400808,463.1992552580523,468.1500686142972,1 44768U 19074BH  26100.46777979  .00043250  00000+0  13248-2 0  9998,2 44768  53.1574  71.4904 0003617 104.4537 255.6867 15.33400808353183
STARLINK-1067,44771,53.0471,0.0006348,15.64526938,370.31298443842115,378.8862588532638,1 44771U 19074BL  26100.58335647 -.00034727  00000+0 -34914-3 0  9992,2 44771  53.0471  48.7105 0006348 100.8887 224.7070 15.64526938  5997
STARLINK-1068,44772,53.0468,0.0004105,15.68226777,361.20687506545346,366.74214861667497,1 44772U 19074BM  26100.33969751  .00063568  00000+0  55831-3 0  9999,2 44772  53.0468  24.3058 0004105  62.8436 297.2998 15.68226777353809
STARLINK-1114,44927,53.0457,0.0004309,15.56381853,395.2188283545238,401.0586227748154,1 44927U 20001P   26100.53118748  .00076174  00000+0  10569-2 0  9992,2 44927  53.0457 175.8408 0004309 284.2294  75.8238 15.56381853345046
STARLINK-1123,44930,53.1485,0.00035,15.31234475,469.73045982099757,474.5256453578104,1 44930U 20001S   26100.52349808  .00050858  00000+0  16632-2 0  9996,2 44930  53.1485 197.3468 0003500  18.6762 341.4367 15.31234475344749
STARLINK-1094,44941,53.1568,0.0002249,15.32885313,465.66939757513774,468.74843416809745,1 44941U 20001AD  26100.47398823  .00064411  00000+0  19941-2 0  9999,2 44941  53.1568 171.7318 0002249  32.4216 327.6923 15.32885313345109
STARLINK-1122,44949,53.159,0.0001457,15.30453338,473.4603289595361,475.4571753617165,1 44949U 20001AM  26100.51781476  .00030067  00000+0  10152-2 0  9997,2 44949  53.1590 171.7670 0001457  89.2900 270.8268 15.30453338345100
STARLINK-1080,44961,53.0478,0.0001634,15.53079796,406.6313633306845,408.8489879916906,1 44961U 20001AZ  26100.46847402  .00078800  00000+0  12333-2 0  9997,2 44961  53.0478 135.7032 0001634 313.3182  46.7691 15.53079796345602
STARLINK-1090,44968,53.1527,0.0003348,15.31573776,468.82315824192756,473.40941824373476,1 44968U 20001BG  26100.42117821  .00037163  00000+0  12080-2 0  9991,2 44968  53.1527 159.0596 0003348  28.4544 331.6640 15.31573776345275
STARLINK-1132,45044,53.1548,0.0004706,15.47838301,419.8503939402117,426.2516721168995,1 45044U 20006A   26100.28306127  .00080807  00000+0  15217-2 0  9993,2 45044  53.1548 103.7865 0004706   8.6571 351.4518 15.47838301341813
STARLINK-1131,45047,53.1586,0.0002172,15.31687227,469.290486785143,472.2656554920468,1 45047U 20006D   26099.42348200  .00044576  00000+0  14402-2 0  9995,2 45047  53.1586 138.1602 0002172  59.4702 300.6513 15.31687227341255
STARLINK-1134,45048,53.0306,0.00043,15.47966324,419.7516879700461,425.6003871823614,1 45048U 20006E   26100.24320056  .00084755  00000+0  15877-2 0  9998,2 45048  53.0306  87.8036 0004300 309.2096  50.8529 15.47966324342025
STARLINK-1156,45054,53.1574,0.0001214,15.30283967,474.13240404993485,475.7963370627058,1 45054U 20006L   26099.39018778  .00014383  00000+0  49553-3 0  9992,2 45054  53.1574 138.3910 0001214  95.8736 264.2404 15.30283967341246
STARLINK-1159,45057,53.0385,0.0003051,15.95213576,285.68559174962866,289.7530972910545,1 45057U 20006P   26100.33335648  .00361780  63002-4  90595-3 0  9994,2 45057  53.0385  74.1544 0003051  82.9848 145.3284 15.95213576  6007
STARLINK-1166,45060,53.049,0.0003066,15.50744084,412.4696985600649,416.63497566158276,1 45060U 20006S   26100.53719899  .00068391  00000+0  11662-2 0  9997,2 45060  53.0490 120.3505 0003066   9.7264 350.3803 15.50744084341599
STARLINK-1169,45061,53.1562,0.000369,15.32879546,464.7001459244957,469.75202388115395,1 45061U 20006T   26100.51421630  .00040291  00000+0  12558-2 0  9993,2 45061  53.1562 132.9629 0003690  52.1423 307.9913 15.32879546341423
STARLINK-1171,45062,53.0438,0.0004756,15.67499058,362.85351501620335,369.26859620670075,1 45062U 20006U   26100.24747113  .00060489  00000+0  54761-3 0  9995,2 45062  53.0438  94.4522 0004756  65.7510 294.4001 15.67499058341938
STARLINK-1133,45064,53.159,0.0001358,15.30471439,473.47414611391014,475.3352964454107,1 45064U 20006W   26100.40809546  .00046043  00000+0  15441-2 0  9995,2 45064  53.1590 110.4655 0001358  85.4212 274.6944 15.30471439341736
STARLINK-1167,45071,53.1595,0.0004432,15.32309406,465.88937230700867,471.9586071683125,1 45071U 20006AD  26100.29802010  .00043699  00000+0  13848-2 0  9992,2 45071  53.1595 110.9506 0004432  64.5735 295.5725 15.32309406341716
STARLINK-1168,45072,53.1573,0.0001466,15.30385359,473.65705643227557,475.66629700428985,1 45072U 20006AE  26100.45465264  .00043390  00000+0  14602-2 0  9994,2 45072  53.1573 110.4619 0001466  86.0488 274.0680 15.30385359341734
STARLINK-1172,45074,53.1567,0.0003416,15.33337524,463.525055727926,468.2008765047767,1 45074U 20006AG  26100.42269721  .00062798  00000+0  19173-2 0  9994,2 45074  53.1567 110.1175 0003416  64.2283 295.9071 15.33337524341731
STARLINK-1153,45080,53.1615,0.0004235,15.32342161,465.92672623067665,471.726104243382,1 45080U 20006AN  26100.02105240  .00033747  00000+0  10725-2 0  9998,2 45080  53.1615 112.1543 0004235  75.3905 284.7566 15.32342161341677
STARLINK-1151,45081,53.0518,0.000505,15.69831613,355.9763175712196,362.78120849188053,1 45081U 20006AP  26100.19707959  .00070289  00000+0  57684-3 0  9990,2 45081  53.0518  84.6037 0005050  77.2310 282.9271 15.69831613342069
STARLINK-1185,45087,53.1603,0.000172,15.3999246,444.9578186853141,447.305367081266,1 45087U 20006AV  26100.40281948  .00061482  00000+0  15160-2 0  9992,2 45087  53.1603  93.8161 0001720  98.7748 261.3452 15.39992460341969
STARLINK-1183,45088,53.1617,0.0001469,15.30346197,473.7718929814346,475.7852795806839,1 45088U 20006AW  26100.36492551  .00011419  00000+0  39530-3 0  9995,2 45088  53.1617  95.4443 0001469  96.4054 263.7114 15.30346197341930
STARLINK-1152,45096,53.0378,0.0002746,15.42617411,436.516029721849,440.259665168066,1 45096U 20006BE  26100.19228286  .00033334  00000+0  76031-3 0  9994,2 45096  53.0378  57.4222 0002746  27.7521 332.3630 15.42617411342446
STARLINK-1184,45098,53.0516,0.000178,15.11934854,529.0700966479262,531.5295001481563,1 45098U 20006BG  26100.41422799  .00024795  00000+0  14423-2 0  9993,2 45098  53.0516 101.9670 0001780 234.3568 125.7258 15.11934854341839
STARLINK-1193,45100,53.0503,0.0006714,15.60595399,381.39471360174866,390.4775109769316,1 45100U 20006BJ  26100.33021619  .00112136  00000+0  13181-2 0  9991,2 45100  53.0503  76.6683 0006714  71.2217 288.9524 15.60595399342180
STARLINK-1143,45179,53.0445,0.0004216,15.71262652,352.44850215544466,358.12612553687995,1 45179U 20012B   26100.45682859  .00146259  00000+0  11158-2 0  9991,2 45179  53.0445 173.5447 0004216 283.4046  76.6501 15.71262652340908
STARLINK-1202,45183,53.1563,5.02e-05,15.30115468,475.12342740929125,475.8115292989187,1 45183U 20012F   26098.86413380  .00013845  00000+0  47994-3 0  9990,2 45183  53.1563 259.0939 0000502  74.4653 285.6403 15.30115468339578
STARLINK-1216,45185,53.1589,0.0001012,15.3044974,473.77600842044376,475.16297597446464,1 45185U 20012H   26100.42178109  .00050989  00000+0  17087-2 0  9994,2 45185  53.1589 251.8333 0001012  68.4279 291.6829 15.30449740339752
